OBJECT_NAME,OBJECT_ID,EPOCH,MEAN_MOTION,ECCENTRICITY,INCLINATION,RA_OF_ASC_NODE,ARG_OF_PERICENTER,MEAN_ANOMALY,EPHEMERIS_TYPE,CLASSIFICATION_TYPE,NORAD_CAT_ID,ELEMENT_SET_NO,REV_AT_EPOCH,BSTAR,MEAN_MOTION_DOT,MEAN_MOTION_DDOT
IRIDIUM 135,2017-083A,2026-06-14T12:00:31.171392,14.34217668,.00021766,86.3962,323.1389,91.3625,268.7821,0,U,43070,999,44376,-.257214E-5,.13E-6,0
IRIDIUM 138,2017-083B,2026-06-14T15:57:59.092992,14.34218288,.0002339,86.3975,322.7651,86.6816,273.4647,0,U,43071,999,44377,.1220539E-4,.54E-6,0
IRIDIUM 116,2017-083C,2026-06-14T13:31:51.116448,14.34217916,.0001931,86.3960,323.0983,97.4471,262.6944,0,U,43072,999,44379,.9051142E-5,.45E-6,0
IRIDIUM 130,2017-083D,2026-06-14T12:46:11.107200,14.34217363,.00018095,86.3967,323.3868,90.7997,269.3406,0,U,43073,999,44373,-.1016531E-4,-.9E-7,0
IRIDIUM 151,2017-083E,2026-06-14T12:09:39.177216,14.34217656,.0002143,86.3963,323.1799,92.2565,267.8876,0,U,43074,999,44375,-.349326E-6,.19E-6,0
IRIDIUM 134,2017-083F,2026-06-14T11:23:59.112672,14.34218041,.00020892,86.3964,323.2012,90.4694,269.6741,0,U,43075,999,44371,.9842069E-5,.47E-6,0
IRIDIUM 137,2017-083G,2026-06-14T11:42:15.149376,14.34217867,.00021769,86.3966,323.2886,103.5957,256.5481,0,U,43076,999,44378,.7189897E-5,.4E-6,0
IRIDIUM 141,2017-083H,2026-06-14T11:33:07.159968,14.34217647,.000209,86.3957,323.1222,90.7330,269.4106,0,U,43077,999,44378,-.30201E-7,.2E-6,0
IRIDIUM 153,2017-083J,2026-06-14T15:25:39.436320,14.34217729,.00022824,86.3958,291.5347,90.0281,270.1176,0,U,43078,999,44491,.2262653E-5,.26E-6,0
IRIDIUM 131,2017-083K,2026-06-14T11:14:51.086112,14.34218489,.00022109,86.3967,323.3132,91.9646,268.1803,0,U,43079,999,44371,.29503704E-4,.102E-5,0
IRIDIUM 144,2018-030A,2026-06-14T13:54:19.323648,14.34218131,.00020876,86.3957,291.4905,96.2288,263.9146,0,U,43249,999,42976,.14563E-4,.61E-6,0
IRIDIUM 149,2018-030B,2026-06-14T14:03:27.423648,14.34217486,.00021351,86.3953,291.4550,93.6990,266.4450,0,U,43250,999,42978,-.8339303E-5,-.4E-7,0
IRIDIUM 157,2018-030C,2026-06-14T14:30:51.407424,14.34217780,.00022012,86.3956,291.4999,93.5859,266.5588,0,U,43251,999,42976,.1805817E-5,.25E-6,0
IRIDIUM 140,2018-030D,2026-06-14T14:58:15.414528,14.34217623,.00021396,86.3956,291.5045,92.9301,267.2140,0,U,43252,999,42982,-.639466E-6,.18E-6,0
IRIDIUM 145,2018-030E,2026-06-14T09:38:35.359296,14.34217666,.00019541,86.3955,291.5696,100.0094,260.1323,0,U,43253,999,42972,.16100203E-4,.65E-6,0
IRIDIUM 146,2018-030F,2026-06-14T14:12:35.400096,14.34217727,.0002097,86.3957,291.5024,96.3281,263.8154,0,U,43254,999,42976,.1717365E-5,.25E-6,0
IRIDIUM 148,2018-030G,2026-06-14T10:05:59.436384,14.34217820,.00022469,86.3957,291.6170,96.8519,263.2932,0,U,43255,999,42977,.11772908E-4,.53E-6,0
IRIDIUM 142,2018-030H,2026-06-14T14:21:43.348896,14.34218067,.0002068,86.3953,291.4318,97.7361,262.4070,0,U,43256,999,42976,.50299735E-4,.161E-5,0
IRIDIUM 150,2018-030J,2026-06-14T15:16:31.414944,14.34217569,.00020162,86.3955,291.5323,93.3145,266.8281,0,U,43257,999,42979,.215469E-6,.2E-6,0
IRIDIUM 143,2018-030K,2026-06-14T14:49:07.375872,14.34217521,.00020625,86.3961,291.6326,95.6239,264.5192,0,U,43258,999,42972,.60372408E-4,.189E-5,0
IRIDIUM 161,2018-047C,2026-06-14T07:50:03.686784,14.43281564,.00025389,86.4483,89.6672,85.5993,274.5498,0,U,43478,999,42472,.79064601E-4,.286E-5,0
IRIDIUM 152,2018-047D,2026-06-14T12:29:22.278336,14.34217911,.00023375,86.3959,89.4472,83.8118,276.3344,0,U,43479,999,42210,.14338119E-4,.6E-6,0
IRIDIUM 147,2018-047E,2026-06-14T12:38:30.280704,14.34217537,.00021469,86.3960,89.4497,85.5443,274.5998,0,U,43480,999,42210,-.105625E-6,.19E-6,0
IRIDIUM 110,2018-047F,2026-06-14T07:46:14.335392,14.34215722,.00026931,86.3962,89.6269,81.9507,278.1994,0,U,43481,999,42206,.23500858E-4,.86E-6,0
IRIDIUM 162,2018-047G,2026-06-14T12:40:30.590976,14.43280281,.00022919,86.4481,89.4740,82.7592,277.3869,0,U,43482,999,42474,.77381704E-4,.28E-5,0
IRIDIUM 160,2018-061A,2026-06-14T09:49:10.505568,14.34217856,.00022739,86.3964,57.9590,85.6230,274.5226,0,U,43569,999,41297,.16648665E-4,.66E-6,0
IRIDIUM 166,2018-061B,2026-06-14T10:25:42.475296,14.34217853,.00021161,86.3965,57.8990,86.1489,273.9949,0,U,43570,999,41300,.13891482E-4,.59E-6,0
IRIDIUM 158,2018-061C,2026-06-14T09:40:02.499744,14.34217619,.00022143,86.3963,57.9221,81.9521,278.1926,0,U,43571,999,41296,.9137232E-5,.45E-6,0
IRIDIUM 165,2018-061D,2026-06-14T10:16:34.371840,14.34217325,.00020673,86.3965,57.9579,86.2478,273.8954,0,U,43572,999,41299,.33076611E-4,.112E-5,0
IRIDIUM 155,2018-061E,2026-06-14T11:02:14.479584,14.34217656,.00021259,86.3960,57.8138,82.2233,277.9204,0,U,43573,999,41296,.6625113E-5,.38E-6,0
